[{"OBJECT_NAME":"HERMES-5","OBJECT_ID":"2025-052BQ","EPOCH":"2026-03-09T22:33:51.245280","MEAN_MOTION":15.26210393,"ECCENTRICITY":0.0006071,"INCLINATION":97.4082,"RA_OF_ASC_NODE":324.1247,"ARG_OF_PERICENTER":124.4334,"MEAN_ANOMALY":235.7479,"EPHEMERIS_TYPE":0,"CLASSIFICATION_TYPE":"U","NORAD_CAT_ID":63834,"ELEMENT_SET_NO":999,"REV_AT_EPOCH":5480,"BSTAR":0.00068450239,"MEAN_MOTION_DOT":0.00017673,"MEAN_MOTION_DDOT":0},{"OBJECT_NAME":"STARLINK-33990","OBJECT_ID":"2025-093E","EPOCH":"2026-03-09T01:00:41.148288","MEAN_MOTION":15.27598871,"ECCENTRICITY":0.00025072,"INCLINATION":43.0025,"RA_OF_ASC_NODE":81.503,"ARG_OF_PERICENTER":278.0352,"MEAN_ANOMALY":82.0216,"EPHEMERIS_TYPE":0,"CLASSIFICATION_TYPE":"U","NORAD_CAT_ID":63840,"ELEMENT_SET_NO":999,"REV_AT_EPOCH":4765,"BSTAR":0.0015919678,"MEAN_MOTION_DOT":0.00043833,"MEAN_MOTION_DDOT":0}]
